<?xml version="1.0" encoding="UTF-8"?>
<kml xmlns="http://www.opengis.net/kml/2.2" xmlns:gx="http://www.google.com/kml/ext/2.2" xmlns:globalmapper="https://www.bluemarblegeo.com/globalmapper">
<Document>
<name>TP CAO LANH DT 2022</name>
<Style>
  <ListStyle>
    <listItemType>checkHideChildren</listItemType>
  </ListStyle>
</Style>
    <Folder>
      <name>kml_image_TP CAO LANH DT 2022_L2_1_1</name>
      <Region>
        <LatLonAltBox>
          <north>10.41103387586909790</north>
          <south>10.39534751340914376</south>
          <east>105.69522356795006601</east>
          <west>105.66887109218589558</west>
        </LatLonAltBox>
        <Lod>
          <minLodPixels>183</minLodPixels>
          <maxLodPixels>4097</maxLodPixels>
        </Lod>
      </Region>
      <GroundOverlay>
        <drawOrder>2</drawOrder>
        <gx:altitudeMode>clampToSeaFloor</gx:altitudeMode>
        <Icon>
          <href>kml_image_TP CAO LANH DT 2022_L2_1_1.png</href>
        </Icon>
        <LatLonBox>
          <north>10.41103387586909790</north>
          <south>10.39534751340914376</south>
          <east>105.69522356795006601</east>
          <west>105.66887109218589558</west>
        </LatLonBox>
      </GroundOverlay>
      <Folder>
        <name>kml_image_TP CAO LANH DT 2022_L3_2_2</name>
        <Region>
          <LatLonAltBox>
            <north>10.41103387586909790</north>
            <south>10.39534751340914376</south>
            <east>105.69522356795006601</east>
            <west>105.66887109218589558</west>
          </LatLonAltBox>
          <Lod>
            <minLodPixels>367</minLodPixels>
            <maxLodPixels>4097</maxLodPixels>
          </Lod>
        </Region>
        <GroundOverlay>
          <drawOrder>3</drawOrder>
          <gx:altitudeMode>clampToSeaFloor</gx:altitudeMode>
          <Icon>
            <href>kml_image_TP CAO LANH DT 2022_L3_2_2.png</href>
          </Icon>
          <LatLonBox>
            <north>10.41103387586909790</north>
            <south>10.39534751340914376</south>
            <east>105.69522356795006601</east>
            <west>105.66887109218589558</west>
          </LatLonBox>
        </GroundOverlay>
        <Folder>
          <name>kml_image_TP CAO LANH DT 2022_L4_4_4</name>
          <Region>
            <LatLonAltBox>
              <north>10.41103387586909790</north>
              <south>10.39534751340914376</south>
              <east>105.69522356795006601</east>
              <west>105.66887109218589558</west>
            </LatLonAltBox>
            <Lod>
              <minLodPixels>734</minLodPixels>
              <maxLodPixels>-1</maxLodPixels>
            </Lod>
          </Region>
          <GroundOverlay>
            <drawOrder>4</drawOrder>
            <gx:altitudeMode>clampToSeaFloor</gx:altitudeMode>
            <Icon>
              <href>kml_image_TP CAO LANH DT 2022_L4_4_4.png</href>
            </Icon>
            <LatLonBox>
              <north>10.41103387586909790</north>
              <south>10.39534751340914376</south>
              <east>105.69522356795006601</east>
              <west>105.66887109218589558</west>
            </LatLonBox>
          </GroundOverlay>
        </Folder>
      </Folder>
    </Folder>
  <Folder>
    <name>kml_image_TP CAO LANH DT 2022_L1_0_0</name>
    <Region>
      <LatLonAltBox>
        <north>10.52395363094110614</north>
        <south>10.39534751340914376</south>
        <east>105.69522356795006601</east>
        <west>105.55483016167343635</west>
      </LatLonAltBox>
      <Lod>
        <minLodPixels>37</minLodPixels>
        <maxLodPixels>4097</maxLodPixels>
      </Lod>
    </Region>
    <GroundOverlay>
      <drawOrder>1</drawOrder>
      <gx:altitudeMode>clampToSeaFloor</gx:altitudeMode>
      <Icon>
        <href>kml_image_TP CAO LANH DT 2022_L1_0_0.png</href>
      </Icon>
      <LatLonBox>
        <north>10.52395363094110614</north>
        <south>10.39534751340914376</south>
        <east>105.69522356795006601</east>
        <west>105.55483016167343635</west>
      </LatLonBox>
    </GroundOverlay>
    <Folder>
      <name>kml_image_TP CAO LANH DT 2022_L2_0_0</name>
      <Region>
        <LatLonAltBox>
          <north>10.52395363094110614</north>
          <south>10.41103387586909790</south>
          <east>105.66887109218589558</east>
          <west>105.55483016167343635</west>
        </LatLonAltBox>
        <Lod>
          <minLodPixels>1024</minLodPixels>
          <maxLodPixels>4097</maxLodPixels>
        </Lod>
      </Region>
      <GroundOverlay>
        <drawOrder>2</drawOrder>
        <gx:altitudeMode>clampToSeaFloor</gx:altitudeMode>
        <Icon>
          <href>kml_image_TP CAO LANH DT 2022_L2_0_0.png</href>
        </Icon>
        <LatLonBox>
          <north>10.52395363094110614</north>
          <south>10.41103387586909790</south>
          <east>105.66887109218589558</east>
          <west>105.55483016167343635</west>
        </LatLonBox>
      </GroundOverlay>
      <Folder>
        <name>kml_image_TP CAO LANH DT 2022_L3_0_0</name>
        <Region>
          <LatLonAltBox>
            <north>10.52395363094110614</north>
            <south>10.46749375340510291</south>
            <east>105.61185062692966596</east>
            <west>105.55483016167343635</west>
          </LatLonAltBox>
          <Lod>
            <minLodPixels>1024</minLodPixels>
            <maxLodPixels>4097</maxLodPixels>
          </Lod>
        </Region>
        <GroundOverlay>
          <drawOrder>3</drawOrder>
          <gx:altitudeMode>clampToSeaFloor</gx:altitudeMode>
          <Icon>
            <href>kml_image_TP CAO LANH DT 2022_L3_0_0.png</href>
          </Icon>
          <LatLonBox>
            <north>10.52395363094110614</north>
            <south>10.46749375340510291</south>
            <east>105.61185062692966596</east>
            <west>105.55483016167343635</west>
          </LatLonBox>
        </GroundOverlay>
        <Folder>
          <name>kml_image_TP CAO LANH DT 2022_L4_0_0</name>
          <Region>
            <LatLonAltBox>
              <north>10.52395363094110614</north>
              <south>10.49572369217310452</south>
              <east>105.58334039430155826</east>
              <west>105.55483016167343635</west>
            </LatLonAltBox>
            <Lod>
              <minLodPixels>1024</minLodPixels>
              <maxLodPixels>-1</maxLodPixels>
            </Lod>
          </Region>
          <GroundOverlay>
            <drawOrder>4</drawOrder>
            <gx:altitudeMode>clampToSeaFloor</gx:altitudeMode>
            <Icon>
              <href>kml_image_TP CAO LANH DT 2022_L4_0_0.png</href>
            </Icon>
            <LatLonBox>
              <north>10.52395363094110614</north>
              <south>10.49572369217310452</south>
              <east>105.58334039430155826</east>
              <west>105.55483016167343635</west>
            </LatLonBox>
          </GroundOverlay>
        </Folder>
        <Folder>
          <name>kml_image_TP CAO LANH DT 2022_L4_0_1</name>
          <Region>
            <LatLonAltBox>
              <north>10.52395363094110614</north>
              <south>10.49572369217310452</south>
              <east>105.61185062692966596</east>
              <west>105.58334039430155826</west>
            </LatLonAltBox>
            <Lod>
              <minLodPixels>1024</minLodPixels>
              <maxLodPixels>-1</maxLodPixels>
            </Lod>
          </Region>
          <GroundOverlay>
            <drawOrder>4</drawOrder>
            <gx:altitudeMode>clampToSeaFloor</gx:altitudeMode>
            <Icon>
              <href>kml_image_TP CAO LANH DT 2022_L4_0_1.png</href>
            </Icon>
            <LatLonBox>
              <north>10.52395363094110614</north>
              <south>10.49572369217310452</south>
              <east>105.61185062692966596</east>
              <west>105.58334039430155826</west>
            </LatLonBox>
          </GroundOverlay>
        </Folder>
        <Folder>
          <name>kml_image_TP CAO LANH DT 2022_L4_1_0</name>
          <Region>
            <LatLonAltBox>
              <north>10.49572369217310452</north>
              <south>10.46749375340510291</south>
              <east>105.58334039430155826</east>
              <west>105.55483016167343635</west>
            </LatLonAltBox>
            <Lod>
              <minLodPixels>1024</minLodPixels>
              <maxLodPixels>-1</maxLodPixels>
            </Lod>
          </Region>
          <GroundOverlay>
            <drawOrder>4</drawOrder>
            <gx:altitudeMode>clampToSeaFloor</gx:altitudeMode>
            <Icon>
              <href>kml_image_TP CAO LANH DT 2022_L4_1_0.png</href>
            </Icon>
            <LatLonBox>
              <north>10.49572369217310452</north>
              <south>10.46749375340510291</south>
              <east>105.58334039430155826</east>
              <west>105.55483016167343635</west>
            </LatLonBox>
          </GroundOverlay>
        </Folder>
        <Folder>
          <name>kml_image_TP CAO LANH DT 2022_L4_1_1</name>
          <Region>
            <LatLonAltBox>
              <north>10.49572369217310452</north>
              <south>10.46749375340510291</south>
              <east>105.61185062692966596</east>
              <west>105.58334039430155826</west>
            </LatLonAltBox>
            <Lod>
              <minLodPixels>1024</minLodPixels>
              <maxLodPixels>-1</maxLodPixels>
            </Lod>
          </Region>
          <GroundOverlay>
            <drawOrder>4</drawOrder>
            <gx:altitudeMode>clampToSeaFloor</gx:altitudeMode>
            <Icon>
              <href>kml_image_TP CAO LANH DT 2022_L4_1_1.png</href>
            </Icon>
            <LatLonBox>
              <north>10.49572369217310452</north>
              <south>10.46749375340510291</south>
              <east>105.61185062692966596</east>
              <west>105.58334039430155826</west>
            </LatLonBox>
          </GroundOverlay>
        </Folder>
      </Folder>
      <Folder>
        <name>kml_image_TP CAO LANH DT 2022_L3_0_1</name>
        <Region>
          <LatLonAltBox>
            <north>10.52395363094110614</north>
            <south>10.46749375340510291</south>
            <east>105.66887109218589558</east>
            <west>105.61185062692966596</west>
          </LatLonAltBox>
          <Lod>
            <minLodPixels>1024</minLodPixels>
            <maxLodPixels>4097</maxLodPixels>
          </Lod>
        </Region>
        <GroundOverlay>
          <drawOrder>3</drawOrder>
          <gx:altitudeMode>clampToSeaFloor</gx:altitudeMode>
          <Icon>
            <href>kml_image_TP CAO LANH DT 2022_L3_0_1.png</href>
          </Icon>
          <LatLonBox>
            <north>10.52395363094110614</north>
            <south>10.46749375340510291</south>
            <east>105.66887109218589558</east>
            <west>105.61185062692966596</west>
          </LatLonBox>
        </GroundOverlay>
        <Folder>
          <name>kml_image_TP CAO LANH DT 2022_L4_0_2</name>
          <Region>
            <LatLonAltBox>
              <north>10.52395363094110614</north>
              <south>10.49572369217310452</south>
              <east>105.64036085955778788</east>
              <west>105.61185062692966596</west>
            </LatLonAltBox>
            <Lod>
              <minLodPixels>1024</minLodPixels>
              <maxLodPixels>-1</maxLodPixels>
            </Lod>
          </Region>
          <GroundOverlay>
            <drawOrder>4</drawOrder>
            <gx:altitudeMode>clampToSeaFloor</gx:altitudeMode>
            <Icon>
              <href>kml_image_TP CAO LANH DT 2022_L4_0_2.png</href>
            </Icon>
            <LatLonBox>
              <north>10.52395363094110614</north>
              <south>10.49572369217310452</south>
              <east>105.64036085955778788</east>
              <west>105.61185062692966596</west>
            </LatLonBox>
          </GroundOverlay>
        </Folder>
        <Folder>
          <name>kml_image_TP CAO LANH DT 2022_L4_0_3</name>
          <Region>
            <LatLonAltBox>
              <north>10.52395363094110614</north>
              <south>10.49572369217310452</south>
              <east>105.66887109218589558</east>
              <west>105.64036085955778788</west>
            </LatLonAltBox>
            <Lod>
              <minLodPixels>1024</minLodPixels>
              <maxLodPixels>-1</maxLodPixels>
            </Lod>
          </Region>
          <GroundOverlay>
            <drawOrder>4</drawOrder>
            <gx:altitudeMode>clampToSeaFloor</gx:altitudeMode>
            <Icon>
              <href>kml_image_TP CAO LANH DT 2022_L4_0_3.png</href>
            </Icon>
            <LatLonBox>
              <north>10.52395363094110614</north>
              <south>10.49572369217310452</south>
              <east>105.66887109218589558</east>
              <west>105.64036085955778788</west>
            </LatLonBox>
          </GroundOverlay>
        </Folder>
        <Folder>
          <name>kml_image_TP CAO LANH DT 2022_L4_1_2</name>
          <Region>
            <LatLonAltBox>
              <north>10.49572369217310452</north>
              <south>10.46749375340510291</south>
              <east>105.64036085955778788</east>
              <west>105.61185062692966596</west>
            </LatLonAltBox>
            <Lod>
              <minLodPixels>1024</minLodPixels>
              <maxLodPixels>-1</maxLodPixels>
            </Lod>
          </Region>
          <GroundOverlay>
            <drawOrder>4</drawOrder>
            <gx:altitudeMode>clampToSeaFloor</gx:altitudeMode>
            <Icon>
              <href>kml_image_TP CAO LANH DT 2022_L4_1_2.png</href>
            </Icon>
            <LatLonBox>
              <north>10.49572369217310452</north>
              <south>10.46749375340510291</south>
              <east>105.64036085955778788</east>
              <west>105.61185062692966596</west>
            </LatLonBox>
          </GroundOverlay>
        </Folder>
        <Folder>
          <name>kml_image_TP CAO LANH DT 2022_L4_1_3</name>
          <Region>
            <LatLonAltBox>
              <north>10.49572369217310452</north>
              <south>10.46749375340510291</south>
              <east>105.66887109218589558</east>
              <west>105.64036085955778788</west>
            </LatLonAltBox>
            <Lod>
              <minLodPixels>1024</minLodPixels>
              <maxLodPixels>-1</maxLodPixels>
            </Lod>
          </Region>
          <GroundOverlay>
            <drawOrder>4</drawOrder>
            <gx:altitudeMode>clampToSeaFloor</gx:altitudeMode>
            <Icon>
              <href>kml_image_TP CAO LANH DT 2022_L4_1_3.png</href>
            </Icon>
            <LatLonBox>
              <north>10.49572369217310452</north>
              <south>10.46749375340510291</south>
              <east>105.66887109218589558</east>
              <west>105.64036085955778788</west>
            </LatLonBox>
          </GroundOverlay>
        </Folder>
      </Folder>
      <Folder>
        <name>kml_image_TP CAO LANH DT 2022_L3_1_0</name>
        <Region>
          <LatLonAltBox>
            <north>10.46749375340510291</north>
            <south>10.41103387586909790</south>
            <east>105.61185062692966596</east>
            <west>105.55483016167343635</west>
          </LatLonAltBox>
          <Lod>
            <minLodPixels>1024</minLodPixels>
            <maxLodPixels>4097</maxLodPixels>
          </Lod>
        </Region>
        <GroundOverlay>
          <drawOrder>3</drawOrder>
          <gx:altitudeMode>clampToSeaFloor</gx:altitudeMode>
          <Icon>
            <href>kml_image_TP CAO LANH DT 2022_L3_1_0.png</href>
          </Icon>
          <LatLonBox>
            <north>10.46749375340510291</north>
            <south>10.41103387586909790</south>
            <east>105.61185062692966596</east>
            <west>105.55483016167343635</west>
          </LatLonBox>
        </GroundOverlay>
        <Folder>
          <name>kml_image_TP CAO LANH DT 2022_L4_2_0</name>
          <Region>
            <LatLonAltBox>
              <north>10.46749375340510291</north>
              <south>10.43926381463709951</south>
              <east>105.58334039430155826</east>
              <west>105.55483016167343635</west>
            </LatLonAltBox>
            <Lod>
              <minLodPixels>1024</minLodPixels>
              <maxLodPixels>-1</maxLodPixels>
            </Lod>
          </Region>
          <GroundOverlay>
            <drawOrder>4</drawOrder>
            <gx:altitudeMode>clampToSeaFloor</gx:altitudeMode>
            <Icon>
              <href>kml_image_TP CAO LANH DT 2022_L4_2_0.png</href>
            </Icon>
            <LatLonBox>
              <north>10.46749375340510291</north>
              <south>10.43926381463709951</south>
              <east>105.58334039430155826</east>
              <west>105.55483016167343635</west>
            </LatLonBox>
          </GroundOverlay>
        </Folder>
        <Folder>
          <name>kml_image_TP CAO LANH DT 2022_L4_2_1</name>
          <Region>
            <LatLonAltBox>
              <north>10.46749375340510291</north>
              <south>10.43926381463709951</south>
              <east>105.61185062692966596</east>
              <west>105.58334039430155826</west>
            </LatLonAltBox>
            <Lod>
              <minLodPixels>1024</minLodPixels>
              <maxLodPixels>-1</maxLodPixels>
            </Lod>
          </Region>
          <GroundOverlay>
            <drawOrder>4</drawOrder>
            <gx:altitudeMode>clampToSeaFloor</gx:altitudeMode>
            <Icon>
              <href>kml_image_TP CAO LANH DT 2022_L4_2_1.png</href>
            </Icon>
            <LatLonBox>
              <north>10.46749375340510291</north>
              <south>10.43926381463709951</south>
              <east>105.61185062692966596</east>
              <west>105.58334039430155826</west>
            </LatLonBox>
          </GroundOverlay>
        </Folder>
        <Folder>
          <name>kml_image_TP CAO LANH DT 2022_L4_3_0</name>
          <Region>
            <LatLonAltBox>
              <north>10.43926381463709951</north>
              <south>10.41103387586909790</south>
              <east>105.58334039430155826</east>
              <west>105.55483016167343635</west>
            </LatLonAltBox>
            <Lod>
              <minLodPixels>1024</minLodPixels>
              <maxLodPixels>-1</maxLodPixels>
            </Lod>
          </Region>
          <GroundOverlay>
            <drawOrder>4</drawOrder>
            <gx:altitudeMode>clampToSeaFloor</gx:altitudeMode>
            <Icon>
              <href>kml_image_TP CAO LANH DT 2022_L4_3_0.png</href>
            </Icon>
            <LatLonBox>
              <north>10.43926381463709951</north>
              <south>10.41103387586909790</south>
              <east>105.58334039430155826</east>
              <west>105.55483016167343635</west>
            </LatLonBox>
          </GroundOverlay>
        </Folder>
        <Folder>
          <name>kml_image_TP CAO LANH DT 2022_L4_3_1</name>
          <Region>
            <LatLonAltBox>
              <north>10.43926381463709951</north>
              <south>10.41103387586909790</south>
              <east>105.61185062692966596</east>
              <west>105.58334039430155826</west>
            </LatLonAltBox>
            <Lod>
              <minLodPixels>1024</minLodPixels>
              <maxLodPixels>-1</maxLodPixels>
            </Lod>
          </Region>
          <GroundOverlay>
            <drawOrder>4</drawOrder>
            <gx:altitudeMode>clampToSeaFloor</gx:altitudeMode>
            <Icon>
              <href>kml_image_TP CAO LANH DT 2022_L4_3_1.png</href>
            </Icon>
            <LatLonBox>
              <north>10.43926381463709951</north>
              <south>10.41103387586909790</south>
              <east>105.61185062692966596</east>
              <west>105.58334039430155826</west>
            </LatLonBox>
          </GroundOverlay>
        </Folder>
      </Folder>
      <Folder>
        <name>kml_image_TP CAO LANH DT 2022_L3_1_1</name>
        <Region>
          <LatLonAltBox>
            <north>10.46749375340510291</north>
            <south>10.41103387586909790</south>
            <east>105.66887109218589558</east>
            <west>105.61185062692966596</west>
          </LatLonAltBox>
          <Lod>
            <minLodPixels>1024</minLodPixels>
            <maxLodPixels>4097</maxLodPixels>
          </Lod>
        </Region>
        <GroundOverlay>
          <drawOrder>3</drawOrder>
          <gx:altitudeMode>clampToSeaFloor</gx:altitudeMode>
          <Icon>
            <href>kml_image_TP CAO LANH DT 2022_L3_1_1.png</href>
          </Icon>
          <LatLonBox>
            <north>10.46749375340510291</north>
            <south>10.41103387586909790</south>
            <east>105.66887109218589558</east>
            <west>105.61185062692966596</west>
          </LatLonBox>
        </GroundOverlay>
        <Folder>
          <name>kml_image_TP CAO LANH DT 2022_L4_2_2</name>
          <Region>
            <LatLonAltBox>
              <north>10.46749375340510291</north>
              <south>10.43926381463709951</south>
              <east>105.64036085955778788</east>
              <west>105.61185062692966596</west>
            </LatLonAltBox>
            <Lod>
              <minLodPixels>1024</minLodPixels>
              <maxLodPixels>-1</maxLodPixels>
            </Lod>
          </Region>
          <GroundOverlay>
            <drawOrder>4</drawOrder>
            <gx:altitudeMode>clampToSeaFloor</gx:altitudeMode>
            <Icon>
              <href>kml_image_TP CAO LANH DT 2022_L4_2_2.png</href>
            </Icon>
            <LatLonBox>
              <north>10.46749375340510291</north>
              <south>10.43926381463709951</south>
              <east>105.64036085955778788</east>
              <west>105.61185062692966596</west>
            </LatLonBox>
          </GroundOverlay>
        </Folder>
        <Folder>
          <name>kml_image_TP CAO LANH DT 2022_L4_2_3</name>
          <Region>
            <LatLonAltBox>
              <north>10.46749375340510291</north>
              <south>10.43926381463709951</south>
              <east>105.66887109218589558</east>
              <west>105.64036085955778788</west>
            </LatLonAltBox>
            <Lod>
              <minLodPixels>1024</minLodPixels>
              <maxLodPixels>-1</maxLodPixels>
            </Lod>
          </Region>
          <GroundOverlay>
            <drawOrder>4</drawOrder>
            <gx:altitudeMode>clampToSeaFloor</gx:altitudeMode>
            <Icon>
              <href>kml_image_TP CAO LANH DT 2022_L4_2_3.png</href>
            </Icon>
            <LatLonBox>
              <north>10.46749375340510291</north>
              <south>10.43926381463709951</south>
              <east>105.66887109218589558</east>
              <west>105.64036085955778788</west>
            </LatLonBox>
          </GroundOverlay>
        </Folder>
        <Folder>
          <name>kml_image_TP CAO LANH DT 2022_L4_3_2</name>
          <Region>
            <LatLonAltBox>
              <north>10.43926381463709951</north>
              <south>10.41103387586909790</south>
              <east>105.64036085955778788</east>
              <west>105.61185062692966596</west>
            </LatLonAltBox>
            <Lod>
              <minLodPixels>1024</minLodPixels>
              <maxLodPixels>-1</maxLodPixels>
            </Lod>
          </Region>
          <GroundOverlay>
            <drawOrder>4</drawOrder>
            <gx:altitudeMode>clampToSeaFloor</gx:altitudeMode>
            <Icon>
              <href>kml_image_TP CAO LANH DT 2022_L4_3_2.png</href>
            </Icon>
            <LatLonBox>
              <north>10.43926381463709951</north>
              <south>10.41103387586909790</south>
              <east>105.64036085955778788</east>
              <west>105.61185062692966596</west>
            </LatLonBox>
          </GroundOverlay>
        </Folder>
        <Folder>
          <name>kml_image_TP CAO LANH DT 2022_L4_3_3</name>
          <Region>
            <LatLonAltBox>
              <north>10.43926381463709951</north>
              <south>10.41103387586909790</south>
              <east>105.66887109218589558</east>
              <west>105.64036085955778788</west>
            </LatLonAltBox>
            <Lod>
              <minLodPixels>1024</minLodPixels>
              <maxLodPixels>-1</maxLodPixels>
            </Lod>
          </Region>
          <GroundOverlay>
            <drawOrder>4</drawOrder>
            <gx:altitudeMode>clampToSeaFloor</gx:altitudeMode>
            <Icon>
              <href>kml_image_TP CAO LANH DT 2022_L4_3_3.png</href>
            </Icon>
            <LatLonBox>
              <north>10.43926381463709951</north>
              <south>10.41103387586909790</south>
              <east>105.66887109218589558</east>
              <west>105.64036085955778788</west>
            </LatLonBox>
          </GroundOverlay>
        </Folder>
      </Folder>
    </Folder>
    <Folder>
      <name>kml_image_TP CAO LANH DT 2022_L2_0_1</name>
      <Region>
        <LatLonAltBox>
          <north>10.52395363094110614</north>
          <south>10.41103387586909790</south>
          <east>105.69522356795006601</east>
          <west>105.66887109218589558</west>
        </LatLonAltBox>
        <Lod>
          <minLodPixels>492</minLodPixels>
          <maxLodPixels>4097</maxLodPixels>
        </Lod>
      </Region>
      <GroundOverlay>
        <drawOrder>2</drawOrder>
        <gx:altitudeMode>clampToSeaFloor</gx:altitudeMode>
        <Icon>
          <href>kml_image_TP CAO LANH DT 2022_L2_0_1.png</href>
        </Icon>
        <LatLonBox>
          <north>10.52395363094110614</north>
          <south>10.41103387586909790</south>
          <east>105.69522356795006601</east>
          <west>105.66887109218589558</west>
        </LatLonBox>
      </GroundOverlay>
      <Folder>
        <name>kml_image_TP CAO LANH DT 2022_L3_0_2</name>
        <Region>
          <LatLonAltBox>
            <north>10.52395363094110614</north>
            <south>10.46749375340510291</south>
            <east>105.69522356795006601</east>
            <west>105.66887109218589558</west>
          </LatLonAltBox>
          <Lod>
            <minLodPixels>696</minLodPixels>
            <maxLodPixels>4097</maxLodPixels>
          </Lod>
        </Region>
        <GroundOverlay>
          <drawOrder>3</drawOrder>
          <gx:altitudeMode>clampToSeaFloor</gx:altitudeMode>
          <Icon>
            <href>kml_image_TP CAO LANH DT 2022_L3_0_2.png</href>
          </Icon>
          <LatLonBox>
            <north>10.52395363094110614</north>
            <south>10.46749375340510291</south>
            <east>105.69522356795006601</east>
            <west>105.66887109218589558</west>
          </LatLonBox>
        </GroundOverlay>
        <Folder>
          <name>kml_image_TP CAO LANH DT 2022_L4_0_4</name>
          <Region>
            <LatLonAltBox>
              <north>10.52395363094110614</north>
              <south>10.49572369217310452</south>
              <east>105.69522356795006601</east>
              <west>105.66887109218589558</west>
            </LatLonAltBox>
            <Lod>
              <minLodPixels>984</minLodPixels>
              <maxLodPixels>-1</maxLodPixels>
            </Lod>
          </Region>
          <GroundOverlay>
            <drawOrder>4</drawOrder>
            <gx:altitudeMode>clampToSeaFloor</gx:altitudeMode>
            <Icon>
              <href>kml_image_TP CAO LANH DT 2022_L4_0_4.png</href>
            </Icon>
            <LatLonBox>
              <north>10.52395363094110614</north>
              <south>10.49572369217310452</south>
              <east>105.69522356795006601</east>
              <west>105.66887109218589558</west>
            </LatLonBox>
          </GroundOverlay>
        </Folder>
        <Folder>
          <name>kml_image_TP CAO LANH DT 2022_L4_1_4</name>
          <Region>
            <LatLonAltBox>
              <north>10.49572369217310452</north>
              <south>10.46749375340510291</south>
              <east>105.69522356795006601</east>
              <west>105.66887109218589558</west>
            </LatLonAltBox>
            <Lod>
              <minLodPixels>984</minLodPixels>
              <maxLodPixels>-1</maxLodPixels>
            </Lod>
          </Region>
          <GroundOverlay>
            <drawOrder>4</drawOrder>
            <gx:altitudeMode>clampToSeaFloor</gx:altitudeMode>
            <Icon>
              <href>kml_image_TP CAO LANH DT 2022_L4_1_4.png</href>
            </Icon>
            <LatLonBox>
              <north>10.49572369217310452</north>
              <south>10.46749375340510291</south>
              <east>105.69522356795006601</east>
              <west>105.66887109218589558</west>
            </LatLonBox>
          </GroundOverlay>
        </Folder>
      </Folder>
      <Folder>
        <name>kml_image_TP CAO LANH DT 2022_L3_1_2</name>
        <Region>
          <LatLonAltBox>
            <north>10.46749375340510291</north>
            <south>10.41103387586909790</south>
            <east>105.69522356795006601</east>
            <west>105.66887109218589558</west>
          </LatLonAltBox>
          <Lod>
            <minLodPixels>696</minLodPixels>
            <maxLodPixels>4097</maxLodPixels>
          </Lod>
        </Region>
        <GroundOverlay>
          <drawOrder>3</drawOrder>
          <gx:altitudeMode>clampToSeaFloor</gx:altitudeMode>
          <Icon>
            <href>kml_image_TP CAO LANH DT 2022_L3_1_2.png</href>
          </Icon>
          <LatLonBox>
            <north>10.46749375340510291</north>
            <south>10.41103387586909790</south>
            <east>105.69522356795006601</east>
            <west>105.66887109218589558</west>
          </LatLonBox>
        </GroundOverlay>
        <Folder>
          <name>kml_image_TP CAO LANH DT 2022_L4_2_4</name>
          <Region>
            <LatLonAltBox>
              <north>10.46749375340510291</north>
              <south>10.43926381463709951</south>
              <east>105.69522356795006601</east>
              <west>105.66887109218589558</west>
            </LatLonAltBox>
            <Lod>
              <minLodPixels>984</minLodPixels>
              <maxLodPixels>-1</maxLodPixels>
            </Lod>
          </Region>
          <GroundOverlay>
            <drawOrder>4</drawOrder>
            <gx:altitudeMode>clampToSeaFloor</gx:altitudeMode>
            <Icon>
              <href>kml_image_TP CAO LANH DT 2022_L4_2_4.png</href>
            </Icon>
            <LatLonBox>
              <north>10.46749375340510291</north>
              <south>10.43926381463709951</south>
              <east>105.69522356795006601</east>
              <west>105.66887109218589558</west>
            </LatLonBox>
          </GroundOverlay>
        </Folder>
        <Folder>
          <name>kml_image_TP CAO LANH DT 2022_L4_3_4</name>
          <Region>
            <LatLonAltBox>
              <north>10.43926381463709951</north>
              <south>10.41103387586909790</south>
              <east>105.69522356795006601</east>
              <west>105.66887109218589558</west>
            </LatLonAltBox>
            <Lod>
              <minLodPixels>984</minLodPixels>
              <maxLodPixels>-1</maxLodPixels>
            </Lod>
          </Region>
          <GroundOverlay>
            <drawOrder>4</drawOrder>
            <gx:altitudeMode>clampToSeaFloor</gx:altitudeMode>
            <Icon>
              <href>kml_image_TP CAO LANH DT 2022_L4_3_4.png</href>
            </Icon>
            <LatLonBox>
              <north>10.43926381463709951</north>
              <south>10.41103387586909790</south>
              <east>105.69522356795006601</east>
              <west>105.66887109218589558</west>
            </LatLonBox>
          </GroundOverlay>
        </Folder>
      </Folder>
    </Folder>
    <Folder>
      <name>kml_image_TP CAO LANH DT 2022_L2_1_0</name>
      <Region>
        <LatLonAltBox>
          <north>10.41103387586909790</north>
          <south>10.39534751340914376</south>
          <east>105.66887109218589558</east>
          <west>105.55483016167343635</west>
        </LatLonAltBox>
        <Lod>
          <minLodPixels>381</minLodPixels>
          <maxLodPixels>4097</maxLodPixels>
        </Lod>
      </Region>
      <GroundOverlay>
        <drawOrder>2</drawOrder>
        <gx:altitudeMode>clampToSeaFloor</gx:altitudeMode>
        <Icon>
          <href>kml_image_TP CAO LANH DT 2022_L2_1_0.png</href>
        </Icon>
        <LatLonBox>
          <north>10.41103387586909790</north>
          <south>10.39534751340914376</south>
          <east>105.66887109218589558</east>
          <west>105.55483016167343635</west>
        </LatLonBox>
      </GroundOverlay>
      <Folder>
        <name>kml_image_TP CAO LANH DT 2022_L3_2_0</name>
        <Region>
          <LatLonAltBox>
            <north>10.41103387586909790</north>
            <south>10.39534751340914376</south>
            <east>105.61185062692966596</east>
            <west>105.55483016167343635</west>
          </LatLonAltBox>
          <Lod>
            <minLodPixels>540</minLodPixels>
            <maxLodPixels>4097</maxLodPixels>
          </Lod>
        </Region>
        <GroundOverlay>
          <drawOrder>3</drawOrder>
          <gx:altitudeMode>clampToSeaFloor</gx:altitudeMode>
          <Icon>
            <href>kml_image_TP CAO LANH DT 2022_L3_2_0.png</href>
          </Icon>
          <LatLonBox>
            <north>10.41103387586909790</north>
            <south>10.39534751340914376</south>
            <east>105.61185062692966596</east>
            <west>105.55483016167343635</west>
          </LatLonBox>
        </GroundOverlay>
        <Folder>
          <name>kml_image_TP CAO LANH DT 2022_L4_4_0</name>
          <Region>
            <LatLonAltBox>
              <north>10.41103387586909790</north>
              <south>10.39534751340914376</south>
              <east>105.58334039430155826</east>
              <west>105.55483016167343635</west>
            </LatLonAltBox>
            <Lod>
              <minLodPixels>763</minLodPixels>
              <maxLodPixels>-1</maxLodPixels>
            </Lod>
          </Region>
          <GroundOverlay>
            <drawOrder>4</drawOrder>
            <gx:altitudeMode>clampToSeaFloor</gx:altitudeMode>
            <Icon>
              <href>kml_image_TP CAO LANH DT 2022_L4_4_0.png</href>
            </Icon>
            <LatLonBox>
              <north>10.41103387586909790</north>
              <south>10.39534751340914376</south>
              <east>105.58334039430155826</east>
              <west>105.55483016167343635</west>
            </LatLonBox>
          </GroundOverlay>
        </Folder>
        <Folder>
          <name>kml_image_TP CAO LANH DT 2022_L4_4_1</name>
          <Region>
            <LatLonAltBox>
              <north>10.41103387586909790</north>
              <south>10.39534751340914376</south>
              <east>105.61185062692966596</east>
              <west>105.58334039430155826</west>
            </LatLonAltBox>
            <Lod>
              <minLodPixels>763</minLodPixels>
              <maxLodPixels>-1</maxLodPixels>
            </Lod>
          </Region>
          <GroundOverlay>
            <drawOrder>4</drawOrder>
            <gx:altitudeMode>clampToSeaFloor</gx:altitudeMode>
            <Icon>
              <href>kml_image_TP CAO LANH DT 2022_L4_4_1.png</href>
            </Icon>
            <LatLonBox>
              <north>10.41103387586909790</north>
              <south>10.39534751340914376</south>
              <east>105.61185062692966596</east>
              <west>105.58334039430155826</west>
            </LatLonBox>
          </GroundOverlay>
        </Folder>
      </Folder>
      <Folder>
        <name>kml_image_TP CAO LANH DT 2022_L3_2_1</name>
        <Region>
          <LatLonAltBox>
            <north>10.41103387586909790</north>
            <south>10.39534751340914376</south>
            <east>105.66887109218589558</east>
            <west>105.61185062692966596</west>
          </LatLonAltBox>
          <Lod>
            <minLodPixels>540</minLodPixels>
            <maxLodPixels>4097</maxLodPixels>
          </Lod>
        </Region>
        <GroundOverlay>
          <drawOrder>3</drawOrder>
          <gx:altitudeMode>clampToSeaFloor</gx:altitudeMode>
          <Icon>
            <href>kml_image_TP CAO LANH DT 2022_L3_2_1.png</href>
          </Icon>
          <LatLonBox>
            <north>10.41103387586909790</north>
            <south>10.39534751340914376</south>
            <east>105.66887109218589558</east>
            <west>105.61185062692966596</west>
          </LatLonBox>
        </GroundOverlay>
        <Folder>
          <name>kml_image_TP CAO LANH DT 2022_L4_4_2</name>
          <Region>
            <LatLonAltBox>
              <north>10.41103387586909790</north>
              <south>10.39534751340914376</south>
              <east>105.64036085955778788</east>
              <west>105.61185062692966596</west>
            </LatLonAltBox>
            <Lod>
              <minLodPixels>763</minLodPixels>
              <maxLodPixels>-1</maxLodPixels>
            </Lod>
          </Region>
          <GroundOverlay>
            <drawOrder>4</drawOrder>
            <gx:altitudeMode>clampToSeaFloor</gx:altitudeMode>
            <Icon>
              <href>kml_image_TP CAO LANH DT 2022_L4_4_2.png</href>
            </Icon>
            <LatLonBox>
              <north>10.41103387586909790</north>
              <south>10.39534751340914376</south>
              <east>105.64036085955778788</east>
              <west>105.61185062692966596</west>
            </LatLonBox>
          </GroundOverlay>
        </Folder>
        <Folder>
          <name>kml_image_TP CAO LANH DT 2022_L4_4_3</name>
          <Region>
            <LatLonAltBox>
              <north>10.41103387586909790</north>
              <south>10.39534751340914376</south>
              <east>105.66887109218589558</east>
              <west>105.64036085955778788</west>
            </LatLonAltBox>
            <Lod>
              <minLodPixels>763</minLodPixels>
              <maxLodPixels>-1</maxLodPixels>
            </Lod>
          </Region>
          <GroundOverlay>
            <drawOrder>4</drawOrder>
            <gx:altitudeMode>clampToSeaFloor</gx:altitudeMode>
            <Icon>
              <href>kml_image_TP CAO LANH DT 2022_L4_4_3.png</href>
            </Icon>
            <LatLonBox>
              <north>10.41103387586909790</north>
              <south>10.39534751340914376</south>
              <east>105.66887109218589558</east>
              <west>105.64036085955778788</west>
            </LatLonBox>
          </GroundOverlay>
        </Folder>
      </Folder>
    </Folder>
    <Folder>
      <name>kml_image_TP CAO LANH DT 2022_L2_1_1</name>
      <Region>
        <LatLonAltBox>
          <north>10.41103387586909790</north>
          <south>10.39534751340914376</south>
          <east>105.69522356795006601</east>
          <west>105.66887109218589558</west>
        </LatLonAltBox>
        <Lod>
          <minLodPixels>183</minLodPixels>
          <maxLodPixels>4097</maxLodPixels>
        </Lod>
      </Region>
      <GroundOverlay>
        <drawOrder>2</drawOrder>
        <gx:altitudeMode>clampToSeaFloor</gx:altitudeMode>
        <Icon>
          <href>kml_image_TP CAO LANH DT 2022_L2_1_1.png</href>
        </Icon>
        <LatLonBox>
          <north>10.41103387586909790</north>
          <south>10.39534751340914376</south>
          <east>105.69522356795006601</east>
          <west>105.66887109218589558</west>
        </LatLonBox>
      </GroundOverlay>
      <Folder>
        <name>kml_image_TP CAO LANH DT 2022_L3_2_2</name>
        <Region>
          <LatLonAltBox>
            <north>10.41103387586909790</north>
            <south>10.39534751340914376</south>
            <east>105.69522356795006601</east>
            <west>105.66887109218589558</west>
          </LatLonAltBox>
          <Lod>
            <minLodPixels>367</minLodPixels>
            <maxLodPixels>4097</maxLodPixels>
          </Lod>
        </Region>
        <GroundOverlay>
          <drawOrder>3</drawOrder>
          <gx:altitudeMode>clampToSeaFloor</gx:altitudeMode>
          <Icon>
            <href>kml_image_TP CAO LANH DT 2022_L3_2_2.png</href>
          </Icon>
          <LatLonBox>
            <north>10.41103387586909790</north>
            <south>10.39534751340914376</south>
            <east>105.69522356795006601</east>
            <west>105.66887109218589558</west>
          </LatLonBox>
        </GroundOverlay>
        <Folder>
          <name>kml_image_TP CAO LANH DT 2022_L4_4_4</name>
          <Region>
            <LatLonAltBox>
              <north>10.41103387586909790</north>
              <south>10.39534751340914376</south>
              <east>105.69522356795006601</east>
              <west>105.66887109218589558</west>
            </LatLonAltBox>
            <Lod>
              <minLodPixels>734</minLodPixels>
              <maxLodPixels>-1</maxLodPixels>
            </Lod>
          </Region>
          <GroundOverlay>
            <drawOrder>4</drawOrder>
            <gx:altitudeMode>clampToSeaFloor</gx:altitudeMode>
            <Icon>
              <href>kml_image_TP CAO LANH DT 2022_L4_4_4.png</href>
            </Icon>
            <LatLonBox>
              <north>10.41103387586909790</north>
              <south>10.39534751340914376</south>
              <east>105.69522356795006601</east>
              <west>105.66887109218589558</west>
            </LatLonBox>
          </GroundOverlay>
        </Folder>
      </Folder>
    </Folder>
  </Folder>
</Document>
</kml>
